<?xml version="1.0" encoding="UTF-8"?>
<ndm xmlns:xsi="http://www.w3.org/2001/XMLSchema-instance" xsi:noNamespaceSchemaLocation="https://sanaregistry.org/r/ndmxml_unqualified/ndmxml-2.0.0-master-2.0.xsd">
<omm id="CCSDS_OMM_VERS" version="2.0">
<header><CREATION_DATE/><ORIGINATOR/></header><body><segment><metadata><OBJECT_NAME>KUIPER-00016</OBJECT_NAME><OBJECT_ID>2025-088J</OBJECT_ID><CENTER_NAME>EARTH</CENTER_NAME><REF_FRAME>TEME</REF_FRAME><TIME_SYSTEM>UTC</TIME_SYSTEM><MEAN_ELEMENT_THEORY>SGP4</MEAN_ELEMENT_THEORY></metadata><data><meanElements><EPOCH>2026-01-24T19:32:51.202464</EPOCH><MEAN_MOTION>14.80178370</MEAN_MOTION><ECCENTRICITY>.00108488</ECCENTRICITY><INCLINATION>51.9008</INCLINATION><RA_OF_ASC_NODE>305.6025</RA_OF_ASC_NODE><ARG_OF_PERICENTER>283.2892</ARG_OF_PERICENTER><MEAN_ANOMALY>76.6860</MEAN_ANOMALY></meanElements><tleParameters><EPHEMERIS_TYPE>0</EPHEMERIS_TYPE><CLASSIFICATION_TYPE>U</CLASSIFICATION_TYPE><NORAD_CAT_ID>63732</NORAD_CAT_ID><ELEMENT_SET_NO>999</ELEMENT_SET_NO><REV_AT_EPOCH>4083</REV_AT_EPOCH><BSTAR>.11738086E-2</BSTAR><MEAN_MOTION_DOT>.8797E-4</MEAN_MOTION_DOT><MEAN_MOTION_DDOT>0</MEAN_MOTION_DDOT></tleParameters></data></segment></body></omm>
<omm id="CCSDS_OMM_VERS" version="2.0">
<header><CREATION_DATE/><ORIGINATOR/></header><body><segment><metadata><OBJECT_NAME>KUIPER-00018</OBJECT_NAME><OBJECT_ID>2025-088K</OBJECT_ID><CENTER_NAME>EARTH</CENTER_NAME><REF_FRAME>TEME</REF_FRAME><TIME_SYSTEM>UTC</TIME_SYSTEM><MEAN_ELEMENT_THEORY>SGP4</MEAN_ELEMENT_THEORY></metadata><data><meanElements><EPOCH>2026-01-26T17:15:08.167392</EPOCH><MEAN_MOTION>14.79966322</MEAN_MOTION><ECCENTRICITY>.000945</ECCENTRICITY><INCLINATION>51.9030</INCLINATION><RA_OF_ASC_NODE>286.1543</RA_OF_ASC_NODE><ARG_OF_PERICENTER>318.3296</ARG_OF_PERICENTER><MEAN_ANOMALY>41.6946</MEAN_ANOMALY></meanElements><tleParameters><EPHEMERIS_TYPE>0</EPHEMERIS_TYPE><CLASSIFICATION_TYPE>U</CLASSIFICATION_TYPE><NORAD_CAT_ID>63733</NORAD_CAT_ID><ELEMENT_SET_NO>999</ELEMENT_SET_NO><REV_AT_EPOCH>4127</REV_AT_EPOCH><BSTAR>.81643E-3</BSTAR><MEAN_MOTION_DOT>.6015E-4</MEAN_MOTION_DOT><MEAN_MOTION_DDOT>0</MEAN_MOTION_DDOT></tleParameters></data></segment></body></omm>
<omm id="CCSDS_OMM_VERS" version="2.0">
<header><CREATION_DATE/><ORIGINATOR/></header><body><segment><metadata><OBJECT_NAME>KUIPER-00019</OBJECT_NAME><OBJECT_ID>2025-088L</OBJECT_ID><CENTER_NAME>EARTH</CENTER_NAME><REF_FRAME>TEME</REF_FRAME><TIME_SYSTEM>UTC</TIME_SYSTEM><MEAN_ELEMENT_THEORY>SGP4</MEAN_ELEMENT_THEORY></metadata><data><meanElements><EPOCH>2026-01-26T17:16:44.817888</EPOCH><MEAN_MOTION>14.79957275</MEAN_MOTION><ECCENTRICITY>.0002214</ECCENTRICITY><INCLINATION>51.8952</INCLINATION><RA_OF_ASC_NODE>284.6839</RA_OF_ASC_NODE><ARG_OF_PERICENTER>35.5104</ARG_OF_PERICENTER><MEAN_ANOMALY>324.6005</MEAN_ANOMALY></meanElements><tleParameters><EPHEMERIS_TYPE>0</EPHEMERIS_TYPE><CLASSIFICATION_TYPE>U</CLASSIFICATION_TYPE><NORAD_CAT_ID>63734</NORAD_CAT_ID><ELEMENT_SET_NO>999</ELEMENT_SET_NO><REV_AT_EPOCH>4129</REV_AT_EPOCH><BSTAR>.87987E-3</BSTAR><MEAN_MOTION_DOT>.6496E-4</MEAN_MOTION_DOT><MEAN_MOTION_DDOT>0</MEAN_MOTION_DDOT></tleParameters></data></segment></body></omm>
<omm id="CCSDS_OMM_VERS" version="2.0">
<header><CREATION_DATE/><ORIGINATOR/></header><body><segment><metadata><OBJECT_NAME>KUIPER-00020</OBJECT_NAME><OBJECT_ID>2025-088M</OBJECT_ID><CENTER_NAME>EARTH</CENTER_NAME><REF_FRAME>TEME</REF_FRAME><TIME_SYSTEM>UTC</TIME_SYSTEM><MEAN_ELEMENT_THEORY>SGP4</MEAN_ELEMENT_THEORY></metadata><data><meanElements><EPOCH>2026-01-26T17:11:15.584640</EPOCH><MEAN_MOTION>14.79923763</MEAN_MOTION><ECCENTRICITY>.0006723</ECCENTRICITY><INCLINATION>51.9031</INCLINATION><RA_OF_ASC_NODE>288.6919</RA_OF_ASC_NODE><ARG_OF_PERICENTER>313.3732</ARG_OF_PERICENTER><MEAN_ANOMALY>46.6670</MEAN_ANOMALY></meanElements><tleParameters><EPHEMERIS_TYPE>0</EPHEMERIS_TYPE><CLASSIFICATION_TYPE>U</CLASSIFICATION_TYPE><NORAD_CAT_ID>63735</NORAD_CAT_ID><ELEMENT_SET_NO>999</ELEMENT_SET_NO><REV_AT_EPOCH>4144</REV_AT_EPOCH><BSTAR>.1044E-2</BSTAR><MEAN_MOTION_DOT>.7746E-4</MEAN_MOTION_DOT><MEAN_MOTION_DDOT>0</MEAN_MOTION_DDOT></tleParameters></data></segment></body></omm>
<omm id="CCSDS_OMM_VERS" version="2.0">
<header><CREATION_DATE/><ORIGINATOR/></header><body><segment><metadata><OBJECT_NAME>KUIPER-00021</OBJECT_NAME><OBJECT_ID>2025-088N</OBJECT_ID><CENTER_NAME>EARTH</CENTER_NAME><REF_FRAME>TEME</REF_FRAME><TIME_SYSTEM>UTC</TIME_SYSTEM><MEAN_ELEMENT_THEORY>SGP4</MEAN_ELEMENT_THEORY></metadata><data><meanElements><EPOCH>2026-01-26T17:08:54.790656</EPOCH><MEAN_MOTION>14.79941420</MEAN_MOTION><ECCENTRICITY>.0004658</ECCENTRICITY><INCLINATION>51.9025</INCLINATION><RA_OF_ASC_NODE>289.6965</RA_OF_ASC_NODE><ARG_OF_PERICENTER>308.7677</ARG_OF_PERICENTER><MEAN_ANOMALY>51.2869</MEAN_ANOMALY></meanElements><tleParameters><EPHEMERIS_TYPE>0</EPHEMERIS_TYPE><CLASSIFICATION_TYPE>U</CLASSIFICATION_TYPE><NORAD_CAT_ID>63736</NORAD_CAT_ID><ELEMENT_SET_NO>999</ELEMENT_SET_NO><REV_AT_EPOCH>4126</REV_AT_EPOCH><BSTAR>.29313E-5</BSTAR><MEAN_MOTION_DOT>-.2E-5</MEAN_MOTION_DOT><MEAN_MOTION_DDOT>0</MEAN_MOTION_DDOT></tleParameters></data></segment></body></omm>
<omm id="CCSDS_OMM_VERS" version="2.0">
<header><CREATION_DATE/><ORIGINATOR/></header><body><segment><metadata><OBJECT_NAME>KUIPER-00023</OBJECT_NAME><OBJECT_ID>2025-088P</OBJECT_ID><CENTER_NAME>EARTH</CENTER_NAME><REF_FRAME>TEME</REF_FRAME><TIME_SYSTEM>UTC</TIME_SYSTEM><MEAN_ELEMENT_THEORY>SGP4</MEAN_ELEMENT_THEORY></metadata><data><meanElements><EPOCH>2026-01-25T18:26:07.936224</EPOCH><MEAN_MOTION>14.79950370</MEAN_MOTION><ECCENTRICITY>.00097241</ECCENTRICITY><INCLINATION>51.9016</INCLINATION><RA_OF_ASC_NODE>295.3462</RA_OF_ASC_NODE><ARG_OF_PERICENTER>320.4681</ARG_OF_PERICENTER><MEAN_ANOMALY>39.5572</MEAN_ANOMALY></meanElements><tleParameters><EPHEMERIS_TYPE>0</EPHEMERIS_TYPE><CLASSIFICATION_TYPE>U</CLASSIFICATION_TYPE><NORAD_CAT_ID>63737</NORAD_CAT_ID><ELEMENT_SET_NO>999</ELEMENT_SET_NO><REV_AT_EPOCH>4140</REV_AT_EPOCH><BSTAR>.12032125E-2</BSTAR><MEAN_MOTION_DOT>.8972E-4</MEAN_MOTION_DOT><MEAN_MOTION_DDOT>0</MEAN_MOTION_DDOT></tleParameters></data></segment></body></omm>
<omm id="CCSDS_OMM_VERS" version="2.0">
<header><CREATION_DATE/><ORIGINATOR/></header><body><segment><metadata><OBJECT_NAME>KUIPER-00024</OBJECT_NAME><OBJECT_ID>2025-088Q</OBJECT_ID><CENTER_NAME>EARTH</CENTER_NAME><REF_FRAME>TEME</REF_FRAME><TIME_SYSTEM>UTC</TIME_SYSTEM><MEAN_ELEMENT_THEORY>SGP4</MEAN_ELEMENT_THEORY></metadata><data><meanElements><EPOCH>2026-01-26T17:26:58.292448</EPOCH><MEAN_MOTION>14.79939498</MEAN_MOTION><ECCENTRICITY>.0000652</ECCENTRICITY><INCLINATION>51.9067</INCLINATION><RA_OF_ASC_NODE>278.6636</RA_OF_ASC_NODE><ARG_OF_PERICENTER>107.6354</ARG_OF_PERICENTER><MEAN_ANOMALY>252.4680</MEAN_ANOMALY></meanElements><tleParameters><EPHEMERIS_TYPE>0</EPHEMERIS_TYPE><CLASSIFICATION_TYPE>U</CLASSIFICATION_TYPE><NORAD_CAT_ID>63738</NORAD_CAT_ID><ELEMENT_SET_NO>999</ELEMENT_SET_NO><REV_AT_EPOCH>4184</REV_AT_EPOCH><BSTAR>.32059E-3</BSTAR><MEAN_MOTION_DOT>.2224E-4</MEAN_MOTION_DOT><MEAN_MOTION_DDOT>0</MEAN_MOTION_DDOT></tleParameters></data></segment></body></omm>
<omm id="CCSDS_OMM_VERS" version="2.0">
<header><CREATION_DATE/><ORIGINATOR/></header><body><segment><metadata><OBJECT_NAME>KUIPER-00025</OBJECT_NAME><OBJECT_ID>2025-088R</OBJECT_ID><CENTER_NAME>EARTH</CENTER_NAME><REF_FRAME>TEME</REF_FRAME><TIME_SYSTEM>UTC</TIME_SYSTEM><MEAN_ELEMENT_THEORY>SGP4</MEAN_ELEMENT_THEORY></metadata><data><meanElements><EPOCH>2026-01-26T17:12:58.110336</EPOCH><MEAN_MOTION>14.79929239</MEAN_MOTION><ECCENTRICITY>.0000621</ECCENTRICITY><INCLINATION>51.9042</INCLINATION><RA_OF_ASC_NODE>287.2164</RA_OF_ASC_NODE><ARG_OF_PERICENTER>96.2778</ARG_OF_PERICENTER><MEAN_ANOMALY>263.8255</MEAN_ANOMALY></meanElements><tleParameters><EPHEMERIS_TYPE>0</EPHEMERIS_TYPE><CLASSIFICATION_TYPE>U</CLASSIFICATION_TYPE><NORAD_CAT_ID>63739</NORAD_CAT_ID><ELEMENT_SET_NO>999</ELEMENT_SET_NO><REV_AT_EPOCH>4158</REV_AT_EPOCH><BSTAR>.95461E-3</BSTAR><MEAN_MOTION_DOT>.7063E-4</MEAN_MOTION_DOT><MEAN_MOTION_DDOT>0</MEAN_MOTION_DDOT></tleParameters></data></segment></body></omm>

</ndm>
